OBJECT_NAME,OBJECT_ID,EPOCH,MEAN_MOTION,ECCENTRICITY,INCLINATION,RA_OF_ASC_NODE,ARG_OF_PERICENTER,MEAN_ANOMALY,EPHEMERIS_TYPE,CLASSIFICATION_TYPE,NORAD_CAT_ID,ELEMENT_SET_NO,REV_AT_EPOCH,BSTAR,MEAN_MOTION_DOT,MEAN_MOTION_DDOT
SXM-8,2021-049A,2026-06-07T14:44:03.697152,1.00270420,.00050484,0.0192,13.5881,19.7069,358.5975,0,U,48838,999,1848,0,-.19E-5,0
TIANLIAN 1-05,2021-063A,2026-06-08T06:37:09.119136,1.00271864,.00009174,1.5698,80.7788,319.0840,332.9207,0,U,49011,999,1798,0,.124E-5,0
STAR ONE D2,2021-069A,2026-06-07T07:57:32.984928,1.00269082,.00018093,0.0130,339.5261,120.3612,205.1400,0,U,49055,999,1784,0,0,0
EUTELSAT QUANTUM,2021-069B,2026-06-08T05:03:15.250752,1.00272213,.00023521,0.0099,351.6299,81.9329,306.5560,0,U,49056,999,1783,0,.141E-5,0
ZHONGXING-2E,2021-071A,2026-06-08T00:09:33.955200,1.00274156,.00017834,0.0454,243.0899,237.1949,236.5634,0,U,49062,999,1794,0,-.276E-5,0
TJS-7,2021-077A,2026-06-08T06:03:57.705408,1.00271168,.00024612,0.4849,86.1798,335.0852,186.9158,0,U,49115,999,946,0,-.108E-5,0
CHINASAT 9B,2021-080A,2026-06-08T01:53:12.881184,1.00273458,.00015689,0.0299,89.3015,11.7409,285.1550,0,U,49125,999,1755,0,-.298E-5,0
SHIJIAN-21 (SJ-21),2021-094A,2026-06-08T03:44:17.481696,1.00275775,.00495528,5.0907,61.2325,168.0159,211.3696,0,U,49330,999,527,0,-.332E-5,0
SES-17,2021-095A,2026-06-08T06:13:11.416224,1.00270219,.00010211,0.0248,33.8789,45.7994,203.1749,0,U,49332,999,1776,0,-.257E-5,0
SYRACUSE 4A,2021-095B,2026-06-07T11:55:58.548288,1.00271065,.00013368,0.0169,340.7258,92.1867,47.4841,0,U,49333,999,1785,0,.15E-5,0
QZS-1R (MICHIBIKI-1R),2021-096A,2026-06-07T15:44:18.159936,1.00259216,.07542754,37.4420,79.7260,271.5943,275.3757,0,U,49336,999,1691,0,-.231E-5,0
ZHONGXING-1D,2021-114A,2026-06-08T07:09:26.876736,1.00274146,.00001801,0.0392,244.0591,320.0947,290.0866,0,U,49505,999,1673,0,-.32E-5,0
STPSAT-6,2021-118A,2026-06-08T06:00:28.040256,1.00273473,.00013965,0.2966,85.5081,256.3162,253.2506,0,U,49817,999,1648,0,-.3E-6,0
EXPRESS AMU-7,2021-123A,2026-06-08T07:13:41.469888,1.00272554,.00005972,0.0156,283.5949,66.3335,160.1903,0,U,50001,999,1645,0,-.227E-5,0
EXPRESS AMU-3,2021-123B,2026-06-08T00:02:29.090112,1.00269595,.0000424,0.0161,304.5274,62.7066,352.7755,0,U,50002,999,693,0,-.306E-5,0
TIANLIAN 2-02,2021-124A,2026-06-08T05:38:20.847264,1.00272697,.00011419,0.7775,86.2654,219.8915,206.0380,0,U,50005,999,1653,0,.2E-7,0
TURKSAT 5B,2021-126A,2026-06-07T10:12:12.838176,1.00271386,.00037557,0.0685,339.5286,18.2742,93.0890,0,U,50212,999,1620,0,.16E-5,0
INMARSAT 6-F1,2021-128A,2026-06-07T10:24:09.567648,1.00271525,.00001367,0.0128,290.5513,218.3765,346.7089,0,U,50319,999,1616,0,-.157E-5,0
SHIYAN-12 01 (SY-12 01),2021-129A,2026-06-07T17:22:47.443008,1.00038133,.0003439,3.6491,80.0377,288.5229,216.2946,0,U,50321,999,1640,0,.4E-6,0
SHIYAN-12 02 (SY-12 02),2021-129B,2026-06-07T17:23:12.122304,1.00491873,.0002688,3.6488,80.0444,53.7262,104.6008,0,U,50322,999,1640,0,-.183E-5,0
TJS-9,2021-135A,2026-06-08T07:11:26.685024,1.00272049,.00047882,0.0582,255.3139,153.2239,93.2296,0,U,50574,999,1634,0,-.283E-5,0
USA 324,2022-006A,2026-06-06T02:06:38.886912,1.00289779,.000284,0.7690,83.2777,165.6787,110.1567,0,U,51280,999,1602,0,-.58E-6,0
GOES 18,2022-021A,2026-06-08T02:27:55.075392,1.00272412,.00006028,0.0310,151.8940,348.7076,15.8793,0,U,51850,999,650,0,.112E-5,0
ZHONGXING-6D,2022-038A,2026-06-07T22:34:24.523968,1.00269486,.00002016,0.0420,95.0199,268.0032,356.9857,0,U,52255,999,1533,0,-.339E-5,0
NILESAT 301,2022-061A,2026-06-08T06:30:09.788832,1.00271947,.00054475,0.0569,28.1383,15.6269,303.4381,0,U,52817,999,1464,0,-.42E-6,0
CMS-02 (GSAT-24),2022-067A,2026-06-08T03:30:39.114720,1.00271073,.00017633,0.0371,136.2788,236.7444,19.1885,0,U,52903,999,1451,0,-.149E-5,0
MEASAT 3D,2022-067B,2026-06-08T03:33:01.387872,1.00269980,.0001162,0.0286,5.2013,31.9698,4.1252,0,U,52904,999,1455,0,-.226E-5,0
SES-22,2022-071A,2026-06-08T05:52:43.781952,1.00273780,.00011849,0.0256,286.7531,142.8338,136.2479,0,U,52933,999,743,0,.12E-5,0
WFOV (USA 332),2022-073A,2026-06-08T00:15:40.869216,1.00272058,.00021336,3.6864,78.6449,244.5340,56.4115,0,U,52940,999,1427,0,-.347E-5,0
TIANLIAN 2-03,2022-078A,2026-06-08T06:35:16.798272,1.00271981,.00016034,0.6496,76.8539,318.8702,330.3509,0,U,53100,999,1445,0,.88E-6,0
SBIRS GEO-6 (USA 336),2022-092A,2026-06-08T05:05:51.542304,1.00271179,.00020194,3.2738,317.3290,116.8839,37.8722,0,U,53355,999,1414,0,-.279E-5,0
