SXM-8                   
1 48838U 21049A   26158.61393168 -.00000190  00000+0  00000+0 0  9995
2 48838   0.0192  13.5881 0005048  19.7069 358.5975  1.00270420 18489
TIANLIAN 1-05           
1 49011U 21063A   26159.27579999  .00000124  00000+0  00000+0 0  9992
2 49011   1.5698  80.7788 0000917 319.0840 332.9207  1.00271864 17986
STAR ONE D2             
1 49055U 21069A   26158.33163177  .00000000  00000+0  00000+0 0  9992
2 49055   0.0130 339.5261 0001809 120.3612 205.1400  1.00269082 17841
EUTELSAT QUANTUM        
1 49056U 21069B   26159.21059318  .00000141  00000+0  00000+0 0  9998
2 49056   0.0099 351.6299 0002352  81.9329 306.5560  1.00272213 17835
ZHONGXING-2E            
1 49062U 21071A   26159.00664300 -.00000276  00000+0  00000+0 0  9998
2 49062   0.0454 243.0899 0001783 237.1949 236.5634  1.00274156 17941
TJS-7                   
1 49115U 21077A   26159.25275122 -.00000108  00000+0  00000+0 0  9994
2 49115   0.4849  86.1798 0002461 335.0852 186.9158  1.00271168  9468
CHINASAT 9B             
1 49125U 21080A   26159.07862131 -.00000298  00000+0  00000+0 0  9991
2 49125   0.0299  89.3015 0001568  11.7409 285.1550  1.00273458 17555
SHIJIAN-21 (SJ-21)      
1 49330U 21094A   26159.15575789 -.00000332  00000+0  00000+0 0  9992
2 49330   5.0907  61.2325 0049552 168.0159 211.3696  1.00275775  5272
SES-17                  
1 49332U 21095A   26159.25915991 -.00000257  00000+0  00000+0 0  9995
2 49332   0.0248  33.8789 0001021  45.7994 203.1749  1.00270219 17766
SYRACUSE 4A             
1 49333U 21095B   26158.49720542  .00000150  00000+0  00000+0 0  9998
2 49333   0.0169 340.7258 0001336  92.1867  47.4841  1.00271065 17856
QZS-1R (MICHIBIKI-1R)   
1 49336U 21096A   26158.65576574 -.00000231  00000+0  00000+0 0  9995
2 49336  37.4420  79.7260 0754275 271.5943 275.3757  1.00259216 16918
ZHONGXING-1D            
1 49505U 21114A   26159.29822774 -.00000320  00000+0  00000+0 0  9990
2 49505   0.0392 244.0591 0000180 320.0947 290.0866  1.00274146 16731
STPSAT-6                
1 49817U 21118A   26159.25032454 -.00000030  00000+0  00000+0 0  9992
2 49817   0.2966  85.5081 0001396 256.3162 253.2506  1.00273473 16484
EXPRESS AMU-7           
1 50001U 21123A   26159.30117442 -.00000227  00000+0  00000+0 0  9990
2 50001   0.0156 283.5949 0000597  66.3335 160.1903  1.00272554 16459
EXPRESS AMU-3           
1 50002U 21123B   26159.00172558 -.00000306  00000+0  00000+0 0  9995
2 50002   0.0161 304.5274 0000424  62.7066 352.7755  1.00269595  6938
TIANLIAN 2-02           
1 50005U 21124A   26159.23496351  .00000002  00000+0  00000+0 0  9996
2 50005   0.7775  86.2654 0001141 219.8915 206.0380  1.00272697 16539
TURKSAT 5B              
1 50212U 21126A   26158.42514859  .00000160  00000+0  00000+0 0  9997
2 50212   0.0685 339.5286 0003755  18.2742  93.0890  1.00271386 16207
INMARSAT 6-F1           
1 50319U 21128A   26158.43344407 -.00000157  00000+0  00000+0 0  9995
2 50319   0.0128 290.5513 0000136 218.3765 346.7089  1.00271525 16162
SHIYAN-12 01 (SY-12 01) 
1 50321U 21129A   26158.72416022  .00000040  00000+0  00000+0 0  9994
2 50321   3.6491  80.0377 0003439 288.5229 216.2946  1.00038133 16406
SHIYAN-12 02 (SY-12 02) 
1 50322U 21129B   26158.72444586 -.00000183  00000+0  00000+0 0  9990
2 50322   3.6488  80.0444 0002688  53.7262 104.6008  1.00491873 16405
TJS-9                   
1 50574U 21135A   26159.29961441 -.00000283  00000+0  00000+0 0  9994
2 50574   0.0582 255.3139 0004788 153.2239  93.2296  1.00272049 16348
USA 324                 
1 51280U 22006A   26157.08795008 -.00000058  00000+0  00000+0 0  9996
2 51280   0.7690  83.2777 0002840 165.6787 110.1567  1.00289779 16021
GOES 18                 
1 51850U 22021A   26159.10272078  .00000112  00000+0  00000+0 0  9998
2 51850   0.0310 151.8940 0000602 348.7076  15.8793  1.00272412  6509
ZHONGXING-6D            
1 52255U 22038A   26158.94056162 -.00000339  00000+0  00000+0 0  9993
2 52255   0.0420  95.0199 0000201 268.0032 356.9857  1.00269486 15335
NILESAT 301             
1 52817U 22061A   26159.27094663 -.00000042  00000+0  00000+0 0  9999
2 52817   0.0569  28.1383 0005447  15.6269 303.4381  1.00271947 14647
CMS-02 (GSAT-24)        
1 52903U 22067A   26159.14628605 -.00000149  00000+0  00000+0 0  9994
2 52903   0.0371 136.2788 0001763 236.7444  19.1885  1.00271073 14518
MEASAT 3D               
1 52904U 22067B   26159.14793273 -.00000226  00000+0  00000+0 0  9995
2 52904   0.0286   5.2013 0001162  31.9698   4.1252  1.00269980 14559
SES-22                  
1 52933U 22071A   26159.24495118  .00000120  00000+0  00000+0 0  9992
2 52933   0.0256 286.7531 0001184 142.8338 136.2479  1.00273780  7436
WFOV (USA 332)          
1 52940U 22073A   26159.01088969 -.00000347  00000+0  00000+0 0  9991
2 52940   3.6864  78.6449 0002133 244.5340  56.4115  1.00272058 14279
TIANLIAN 2-03           
1 53100U 22078A   26159.27449998  .00000088  00000+0  00000+0 0  9997
2 53100   0.6496  76.8539 0001603 318.8702 330.3509  1.00271981 14459
SBIRS GEO-6 (USA 336)   
1 53355U 22092A   26159.21240211 -.00000279  00000+0  00000+0 0  9999
2 53355   3.2738 317.3290 0002019 116.8839  37.8722  1.00271179 14146
